{
  "type": "FeatureCollection",
  "features": [
    {
      "type": "Feature",
      "properties": {
        "norad_id": 39773,
        "name": "EUTELSAT 3B",
        "group": "eutelsat",
        "lat": -0.06889283236900674,
        "lon": -122.34434296945672,
        "alt_km": 35768.32950617906,
        "timestamp": "2025-12-21T09:37:22.319889+00:00",
        "meta_object_name": "EUTELSAT 3B",
        "meta_object_id": "2014-030A",
        "meta_epoch": "2025-12-21T02:56:23.102304",
        "meta_mean_motion": 1.00272656,
        "meta_eccentricity": 0.0004155,
        "meta_inclination": 0.061,
        "meta_ra_of_asc_node": 7.8675,
        "meta_arg_of_pericenter": 225.4448,
        "meta_mean_anomaly": 263.8264,
        "meta_ephemeris_type": 0,
        "meta_classification_type": "U",
        "meta_norad_cat_id": 39773,
        "meta_element_set_no": 999,
        "meta_rev_at_epoch": 4228,
        "meta_bstar": 0,
        "meta_mean_motion_dot": 4.3e-07,
        "meta_mean_motion_ddot": 0,
        "tle_line1": "1 39773U 14030A   25355.12248961  .00000043  00000+0  00000+0 0  9995",
        "tle_line2": "2 39773   0.0610   7.8675 0004155 225.4448 263.8264  1.00272656 42281"
      },
      "geometry": {
        "type": "Point",
        "coordinates": [
          -122.34434296945672,
          -0.06889283236900674
        ]
      }
    },
    {
      "type": "Feature",
      "properties": {
        "norad_id": 40425,
        "name": "EUTELSAT 115 WEST B",
        "group": "eutelsat",
        "lat": -0.005787018678034812,
        "lon": 119.65309087808755,
        "alt_km": 35788.07014558314,
        "timestamp": "2025-12-21T09:37:22.319901+00:00",
        "meta_object_name": "EUTELSAT 115 WEST B",
        "meta_object_id": "2015-010B",
        "meta_epoch": "2025-12-21T04:29:33.222912",
        "meta_mean_motion": 1.00269059,
        "meta_eccentricity": 3.33e-05,
        "meta_inclination": 0.0159,
        "meta_ra_of_asc_node": 149.3637,
        "meta_arg_of_pericenter": 179.3265,
        "meta_mean_anomaly": 73.8064,
        "meta_ephemeris_type": 0,
        "meta_classification_type": "U",
        "meta_norad_cat_id": 40425,
        "meta_element_set_no": 999,
        "meta_rev_at_epoch": 3960,
        "meta_bstar": 0,
        "meta_mean_motion_dot": -2e-08,
        "meta_mean_motion_ddot": 0,
        "tle_line1": "1 40425U 15010B   25355.18719008 -.00000002  00000+0  00000+0 0  9997",
        "tle_line2": "2 40425   0.0159 149.3637 0000333 179.3265  73.8064  1.00269059 39605"
      },
      "geometry": {
        "type": "Point",
        "coordinates": [
          119.65309087808755,
          -0.005787018678034812
        ]
      }
    },
    {
      "type": "Feature",
      "properties": {
        "norad_id": 40875,
        "name": "EUTELSAT 8 WEST B",
        "group": "eutelsat",
        "lat": -0.06577626625424565,
        "lon": -133.4758411831581,
        "alt_km": 35773.37377027693,
        "timestamp": "2025-12-21T09:37:22.319913+00:00",
        "meta_object_name": "EUTELSAT 8 WEST B",
        "meta_object_id": "2015-039B",
        "meta_epoch": "2025-12-21T03:40:38.748864",
        "meta_mean_motion": 1.00271095,
        "meta_eccentricity": 0.0004262,
        "meta_inclination": 0.0633,
        "meta_ra_of_asc_node": 359.6767,
        "meta_arg_of_pericenter": 271.2572,
        "meta_mean_anomaly": 226.2083,
        "meta_ephemeris_type": 0,
        "meta_classification_type": "U",
        "meta_norad_cat_id": 40875,
        "meta_element_set_no": 999,
        "meta_rev_at_epoch": 3787,
        "meta_bstar": 0,
        "meta_mean_motion_dot": -4.3e-07,
        "meta_mean_motion_ddot": 0,
        "tle_line1": "1 40875U 15039B   25355.15322626 -.00000043  00000+0  00000+0 0  9995",
        "tle_line2": "2 40875   0.0633 359.6767 0004262 271.2572 226.2083  1.00271095 37874"
      },
      "geometry": {
        "type": "Point",
        "coordinates": [
          -133.4758411831581,
          -0.06577626625424565
        ]
      }
    },
    {
      "type": "Feature",
      "properties": {
        "norad_id": 41310,
        "name": "EUTELSAT 9B",
        "group": "eutelsat",
        "lat": -0.011411188680609025,
        "lon": -116.47411731329031,
        "alt_km": 35769.67349781612,
        "timestamp": "2025-12-21T09:37:22.319925+00:00",
        "meta_object_name": "EUTELSAT 9B",
        "meta_object_id": "2016-005A",
        "meta_epoch": "2025-12-21T02:58:07.934016",
        "meta_mean_motion": 1.00272818,
        "meta_eccentricity": 0.0004482,
        "meta_inclination": 0.0637,
        "meta_ra_of_asc_node": 72.0406,
        "meta_arg_of_pericenter": 203.606,
        "meta_mean_anomaly": 227.8308,
        "meta_ephemeris_type": 0,
        "meta_classification_type": "U",
        "meta_norad_cat_id": 41310,
        "meta_element_set_no": 999,
        "meta_rev_at_epoch": 3633,
        "meta_bstar": 0,
        "meta_mean_motion_dot": 8.5e-07,
        "meta_mean_motion_ddot": 0,
        "tle_line1": "1 41310U 16005A   25355.12370294  .00000085  00000+0  00000+0 0  9990",
        "tle_line2": "2 41310   0.0637  72.0406 0004482 203.6060 227.8308  1.00272818 36335"
      },
      "geometry": {
        "type": "Point",
        "coordinates": [
          -116.47411731329031,
          -0.011411188680609025
        ]
      }
    },
    {
      "type": "Feature",
      "properties": {
        "norad_id": 41382,
        "name": "EUTELSAT 65 WEST A",
        "group": "eutelsat",
        "lat": -0.011514544968296524,
        "lon": 169.3347933567903,
        "alt_km": 35787.69041714215,
        "timestamp": "2025-12-21T09:37:22.319936+00:00",
        "meta_object_name": "EUTELSAT 65 WEST A",
        "meta_object_id": "2016-014A",
        "meta_epoch": "2025-12-21T02:36:54.964800",
        "meta_mean_motion": 1.00273844,
        "meta_eccentricity": 0.0002134,
        "meta_inclination": 0.0523,
        "meta_ra_of_asc_node": 333.7917,
        "meta_arg_of_pericenter": 299.3331,
        "meta_mean_anomaly": 150.8387,
        "meta_ephemeris_type": 0,
        "meta_classification_type": "U",
        "meta_norad_cat_id": 41382,
        "meta_element_set_no": 999,
        "meta_rev_at_epoch": 3575,
        "meta_bstar": 0,
        "meta_mean_motion_dot": -2.53e-06,
        "meta_mean_motion_ddot": 0,
        "tle_line1": "1 41382U 16014A   25355.10896950 -.00000253  00000+0  00000+0 0  9997",
        "tle_line2": "2 41382   0.0523 333.7917 0002134 299.3331 150.8387  1.00273844 35754"
      },
      "geometry": {
        "type": "Point",
        "coordinates": [
          169.3347933567903,
          -0.011514544968296524
        ]
      }
    },
    {
      "type": "Feature",
      "properties": {
        "norad_id": 41589,
        "name": "EUTELSAT 117 WEST B",
        "group": "eutelsat",
        "lat": -0.008229679813173256,
        "lon": 117.56974091700381,
        "alt_km": 35787.895394464074,
        "timestamp": "2025-12-21T09:37:22.319948+00:00",
        "meta_object_name": "EUTELSAT 117 WEST B",
        "meta_object_id": "2016-038B",
        "meta_epoch": "2025-12-21T04:32:38.608800",
        "meta_mean_motion": 1.00270361,
        "meta_eccentricity": 3.44e-05,
        "meta_inclination": 0.0136,
        "meta_ra_of_asc_node": 151.844,
        "meta_arg_of_pericenter": 158.1973,
        "meta_mean_anomaly": 91.1465,
        "meta_ephemeris_type": 0,
        "meta_classification_type": "U",
        "meta_norad_cat_id": 41589,
        "meta_element_set_no": 999,
        "meta_rev_at_epoch": 3487,
        "meta_bstar": 0,
        "meta_mean_motion_dot": 1.1e-07,
        "meta_mean_motion_ddot": 0,
        "tle_line1": "1 41589U 16038B   25355.18933575  .00000011  00000+0  00000+0 0  9996",
        "tle_line2": "2 41589   0.0136 151.8440 0000344 158.1973  91.1465  1.00270361 34875"
      },
      "geometry": {
        "type": "Point",
        "coordinates": [
          117.56974091700381,
          -0.008229679813173256
        ]
      }
    },
    {
      "type": "Feature",
      "properties": {
        "norad_id": 42741,
        "name": "EUTELSAT 172B",
        "group": "eutelsat",
        "lat": 0.0003618922726863496,
        "lon": 46.556580146111344,
        "alt_km": 35785.59584089799,
        "timestamp": "2025-12-21T09:37:22.319959+00:00",
        "meta_object_name": "EUTELSAT 172B",
        "meta_object_id": "2017-029B",
        "meta_epoch": "2025-12-21T01:51:38.617056",
        "meta_mean_motion": 1.00271482,
        "meta_eccentricity": 2.14e-05,
        "meta_inclination": 0.0336,
        "meta_ra_of_asc_node": 122.8073,
        "meta_arg_of_pericenter": 335.7639,
        "meta_mean_anomaly": 191.2452,
        "meta_ephemeris_type": 0,
        "meta_classification_type": "U",
        "meta_norad_cat_id": 42741,
        "meta_element_set_no": 999,
        "meta_rev_at_epoch": 3194,
        "meta_bstar": 0,
        "meta_mean_motion_dot": 1.7e-07,
        "meta_mean_motion_ddot": 0,
        "tle_line1": "1 42741U 17029B   25355.07753029  .00000017  00000+0  00000+0 0  9996",
        "tle_line2": "2 42741   0.0336 122.8073 0000214 335.7639 191.2452  1.00271482 31944"
      },
      "geometry": {
        "type": "Point",
        "coordinates": [
          46.556580146111344,
          0.0003618922726863496
        ]
      }
    }
  ]
}